{
"type": "FeatureCollection",
"name": "bukovsky_regions_groups",
"crs": { "type": "name", "properties": { "name": "urn:ogc:def:crs:OGC:1.3:CRS84" } },
"features": [
{ "type": "Feature", "properties": { "region": 0, "names": "CONUS", "group": "CONUS" }, "geometry": { "type": "Polygon", "coordinates": [ [ [ -88.011096228404213, 48.395977167092532 ], [ -85.677, 47.453 ], [ -84.653, 46.989 ], [ -84.444, 46.699 ], [ -84.034, 46.687 ], [ -83.88, 46.326 ], [ -83.814, 46.264 ], [ -83.601, 46.229 ], [ -83.414, 46.232 ], [ -83.251, 46.093 ], [ -83.292, 45.799 ], [ -82.232, 45.499 ], [ -81.965, 44.144 ], [ -81.902, 43.586 ], [ -82.087, 43.18 ], [ -82.073, 43.025 ], [ -82.196, 42.879 ], [ -82.304, 42.546 ], [ -82.518, 42.326 ], [ -82.69, 42.224 ], [ -82.863, 42.181 ], [ -82.903, 42.063 ], [ -82.863, 41.98 ], [ -82.808, 41.911 ], [ -82.689, 41.863 ], [ -82.459, 41.878 ], [ -81.764, 42.178 ], [ -81.262, 42.421 ], [ -80.316, 42.6 ], [ -79.514, 42.795 ], [ -79.252, 42.966 ], [ -79.373, 43.553 ], [ -78.632, 43.794 ], [ -76.955, 43.791 ], [ -76.557, 44.256 ], [ -75.977, 44.604 ], [ -75.603, 44.874 ], [ -74.881, 45.189 ], [ -71.71, 45.171 ], [ -71.571, 45.456 ], [ -70.993, 45.547 ], [ -70.611, 45.956 ], [ -70.553, 46.207 ], [ -70.214, 46.804 ], [ -69.338, 47.646 ], [ -68.819, 47.584 ], [ -68.687, 47.517 ], [ -68.509, 47.491 ], [ -68.217, 47.605 ], [ -67.636, 47.183 ], [ -67.471, 46.578 ], [ -67.502, 45.792 ], [ -67.236, 45.629 ], [ -67.178, 45.432 ], [ -66.953, 45.389 ], [ -66.838, 45.131 ], [ -66.773, 45.027 ], [ -66.76, 44.945 ], [ -66.669, 44.792 ], [ -67.204, 44.381 ], [ -67.279, 44.152 ], [ -68.184, 43.802 ], [ -68.352, 43.817 ], [ -68.538, 43.761 ], [ -68.902, 43.581 ], [ -69.388, 43.422 ], [ -69.557, 43.333 ], [ -69.738, 43.3 ], [ -69.962, 43.13 ], [ -70.094, 42.939 ], [ -70.041, 42.768 ], [ -69.908, 42.491 ], [ -69.795, 42.31 ], [ -69.595, 42.133 ], [ -69.483, 42.001 ], [ -69.443, 41.721 ], [ -69.548, 41.498 ], [ -69.488, 41.199 ], [ -69.663, 41.018 ], [ -69.946, 40.916 ], [ -70.34, 40.942 ], [ -70.838, 40.931 ], [ -71.244, 40.859 ], [ -71.608, 40.77 ], [ -72.567, 40.462 ], [ -72.893, 40.33 ], [ -73.2, 40.303 ], [ -73.648, 40.236 ], [ -73.751, 39.803 ], [ -73.839, 39.533 ], [ -74.085, 39.198 ], [ -74.372, 38.982 ], [ -74.504, 38.814 ], [ -74.716, 38.67 ], [ -74.701, 38.442 ], [ -74.762, 38.239 ], [ -75.086, 37.666 ], [ -75.263, 37.548 ], [ -75.356, 37.334 ], [ -75.645, 36.894 ], [ -75.371, 36.199 ], [ -75.12, 35.649 ], [ -75.166, 35.243 ], [ -75.279, 34.984 ], [ -75.726, 34.857 ], [ -76.265, 34.375 ], [ -76.54, 34.248 ], [ -76.776, 34.354 ], [ -76.936, 34.358 ], [ -77.521, 34.032 ], [ -77.684, 33.615 ], [ -77.95, 33.516 ], [ -78.163, 33.577 ], [ -78.569, 33.483 ], [ -78.808, 33.309 ], [ -78.931, 32.928 ], [ -80.061, 32.203 ], [ -80.21, 32.07 ], [ -80.436, 31.966 ], [ -80.764, 31.633 ], [ -81.09, 30.74 ], [ -80.989, 30.128 ], [ -80.765, 29.498 ], [ -80.349, 28.83 ], [ -80.197, 28.552 ], [ -80.271, 28.232 ], [ -79.788, 27.148 ], [ -79.7, 26.777 ], [ -79.766, 26.228 ], [ -79.812, 25.576 ], [ -79.965, 25.158 ], [ -80.143, 24.859 ], [ -80.331, 24.705 ], [ -80.635, 24.487 ], [ -81.054, 24.361 ], [ -81.782, 24.208 ], [ -82.816, 24.169 ], [ -83.288, 24.221 ], [ -83.28, 24.513 ], [ -83.238, 24.798 ], [ -83.163, 25.012 ], [ -82.313, 25.017 ], [ -82.368, 25.134 ], [ -82.51, 25.288 ], [ -82.632, 25.453 ], [ -81.934, 25.61 ], [ -82.143, 26.09 ], [ -82.324, 26.171 ], [ -82.535, 26.48 ], [ -82.719, 26.892 ], [ -83.105, 27.532 ], [ -83.07, 27.615 ], [ -83.183, 27.781 ], [ -83.185, 28.105 ], [ -83.156, 28.373 ], [ -83.014, 28.465 ], [ -82.99, 28.551 ], [ -83.026, 28.753 ], [ -83.273, 28.827 ], [ -83.421, 29.093 ], [ -83.625, 29.29 ], [ -83.895, 29.642 ], [ -84.073, 29.73 ], [ -84.171, 29.626 ], [ -84.467, 29.438 ], [ -85.018, 29.246 ], [ -85.675, 29.436 ], [ -85.767, 29.696 ], [ -85.985, 29.876 ], [ -86.462, 30.068 ], [ -87.771, 29.878 ], [ -88.406, 29.863 ], [ -88.432, 29.714 ], [ -88.695, 29.394 ], [ -88.581, 29.249 ], [ -88.619, 29.022 ], [ -88.937, 28.691 ], [ -89.399, 28.577 ], [ -89.712, 28.693 ], [ -89.828, 28.916 ], [ -90.102, 28.755 ], [ -90.54, 28.711 ], [ -91.083, 28.732 ], [ -91.315, 28.893 ], [ -91.556, 28.983 ], [ -91.655, 29.121 ], [ -91.742, 29.058 ], [ -92.079, 29.114 ], [ -92.164, 29.181 ], [ -92.629, 29.233 ], [ -93.243, 29.441 ], [ -93.588, 29.43 ], [ -93.777, 29.35 ], [ -93.961, 29.348 ], [ -94.266, 29.222 ], [ -94.9, 28.808 ], [ -95.134, 28.597 ], [ -96.044, 28.182 ], [ -96.147, 28.055 ], [ -96.427, 27.94 ], [ -96.796, 27.579 ], [ -97.017, 27.081 ], [ -96.876, 26.595 ], [ -96.749, 25.948 ], [ -97.075, 25.799 ], [ -97.23, 25.659 ], [ -97.68, 25.837 ], [ -98.218, 25.934 ], [ -99.103, 26.254 ], [ -99.357, 26.519 ], [ -99.612, 27.039 ], [ -99.697, 27.291 ], [ -99.724, 27.496 ], [ -99.917, 27.637 ], [ -100.23, 28.008 ], [ -100.41, 28.265 ], [ -100.754, 28.844 ], [ -100.911, 29.059 ], [ -101.45, 29.518 ], [ -101.616, 29.594 ], [ -102.125, 29.651 ], [ -102.3, 29.645 ], [ -102.486, 29.578 ], [ -102.613, 29.283 ], [ -102.733, 29.098 ], [ -102.962, 28.86 ], [ -103.419, 28.868 ], [ -104.191, 29.275 ], [ -104.636, 29.554 ], [ -104.879, 29.863 ], [ -104.926, 30.211 ], [ -105.115, 30.476 ], [ -105.605, 30.822 ], [ -106.064, 31.194 ], [ -106.509, 31.409 ], [ -106.568, 31.573 ], [ -108.002, 31.623 ], [ -108.044, 31.186 ], [ -109.094, 31.123 ], [ -110.773, 31.148 ], [ -111.169, 31.194 ], [ -114.586, 32.219 ], [ -115.006, 32.395 ], [ -115.016, 32.542 ], [ -115.798, 32.441 ], [ -116.707, 32.394 ], [ -117.217, 32.397 ], [ -117.646, 32.472 ], [ -117.738, 32.531 ], [ -117.746, 32.694 ], [ -117.791, 32.911 ], [ -118.158, 33.192 ], [ -118.623, 32.995 ], [ -118.868, 33.315 ], [ -119.105, 33.582 ], [ -119.318, 33.768 ], [ -119.535, 33.987 ], [ -120.066, 33.904 ], [ -121.275, 33.679 ], [ -121.584, 33.954 ], [ -121.826, 34.367 ], [ -121.88, 34.66 ], [ -122.059, 34.867 ], [ -120.888, 34.912 ], [ -120.893, 35.025 ], [ -121.043, 35.12 ], [ -121.102, 35.203 ], [ -121.101, 35.33 ], [ -121.467, 35.579 ], [ -121.847, 36.021 ], [ -122.08, 36.25 ], [ -122.212, 36.601 ], [ -122.153, 36.777 ], [ -122.383, 36.915 ], [ -122.618, 37.111 ], [ -122.627, 37.298 ], [ -122.761, 37.545 ], [ -122.74, 37.709 ], [ -122.921, 37.832 ], [ -123.141, 37.843 ], [ -123.226, 37.954 ], [ -123.188, 38.138 ], [ -123.334, 38.347 ], [ -123.675, 38.615 ], [ -123.958, 38.93 ], [ -123.915, 39.033 ], [ -124.063, 39.354 ], [ -124.015, 39.57 ], [ -124.094, 39.785 ], [ -124.589, 40.208 ], [ -124.605, 40.326 ], [ -124.647, 40.459 ], [ -124.611, 40.573 ], [ -124.351, 40.962 ], [ -124.381, 41.175 ], [ -124.28, 41.465 ], [ -124.451, 41.687 ], [ -124.456, 41.912 ], [ -124.658, 42.199 ], [ -124.66, 42.565 ], [ -124.838, 42.813 ], [ -124.601, 43.21 ], [ -124.66, 43.34 ], [ -124.483, 43.509 ], [ -124.37, 44.139 ], [ -124.312, 44.852 ], [ -124.195, 45.216 ], [ -124.249, 45.364 ], [ -124.209, 45.637 ], [ -124.251, 45.919 ], [ -124.172, 46.089 ], [ -124.36, 46.217 ], [ -124.325, 46.697 ], [ -124.45, 46.914 ], [ -124.416, 47.095 ], [ -124.59, 47.322 ], [ -124.653, 47.654 ], [ -124.891, 47.833 ], [ -125.021, 48.196 ], [ -125.022, 48.603 ], [ -124.41, 48.528 ], [ -123.817, 48.375 ], [ -123.588, 48.395 ], [ -123.444, 48.452 ], [ -123.444, 48.604 ], [ -123.553, 48.73 ], [ -123.617, 48.947 ], [ -123.29, 49.187 ], [ -123.111, 49.134 ], [ -122.837, 49.303 ], [ -122.534, 49.247 ], [ -121.576, 49.18 ], [ -120.445, 49.201 ], [ -117.702, 49.217 ], [ -113.003, 49.227 ], [ -109.426, 49.192 ], [ -107.292, 49.194 ], [ -105.669, 49.171 ], [ -101.067, 49.197 ], [ -98.264, 49.18 ], [ -96.747, 49.197 ], [ -95.453, 49.167 ], [ -95.49, 49.561 ], [ -94.579, 49.541 ], [ -94.395, 48.962 ], [ -93.805, 48.857 ], [ -93.513, 48.786 ], [ -93.223, 48.834 ], [ -92.5, 48.697 ], [ -91.94, 48.521 ], [ -91.477, 48.338 ], [ -90.777, 48.453 ], [ -90.513, 48.262 ], [ -90.011, 48.266 ], [ -89.521, 48.207 ], [ -88.425, 48.56 ], [ -88.011096228404213, 48.395977167092532 ] ] ] } },
{ "type": "Feature", "properties": { "region": 3, "names": "PacificNW", "group": "WEST" }, "geometry": { "type": "Polygon", "coordinates": [ [ [ -120.15, 47.65 ], [ -121.65, 45.15 ], [ -121.65, 40.15 ], [ -122.65, 40.15 ], [ -123.65, 38.65 ], [ -123.726715736040603, 38.672563451776647 ], [ -123.958, 38.93 ], [ -123.915, 39.033 ], [ -124.063, 39.354 ], [ -124.015, 39.57 ], [ -124.094, 39.785 ], [ -124.589, 40.208 ], [ -124.605, 40.326 ], [ -124.647, 40.459 ], [ -124.611, 40.573 ], [ -124.351, 40.962 ], [ -124.381, 41.175 ], [ -124.28, 41.465 ], [ -124.451, 41.687 ], [ -124.456, 41.912 ], [ -124.658, 42.199 ], [ -124.66, 42.565 ], [ -124.838, 42.813 ], [ -124.601, 43.21 ], [ -124.66, 43.34 ], [ -124.483, 43.509 ], [ -124.37, 44.139 ], [ -124.312, 44.852 ], [ -124.195, 45.216 ], [ -124.249, 45.364 ], [ -124.209, 45.637 ], [ -124.251, 45.919 ], [ -124.172, 46.089 ], [ -124.36, 46.217 ], [ -124.325, 46.697 ], [ -124.45, 46.914 ], [ -124.416, 47.095 ], [ -124.59, 47.322 ], [ -124.653, 47.654 ], [ -124.891, 47.833 ], [ -125.021, 48.196 ], [ -125.022, 48.603 ], [ -124.41, 48.528 ], [ -123.817, 48.375 ], [ -123.588, 48.395 ], [ -123.444, 48.452 ], [ -123.444, 48.604 ], [ -123.553, 48.73 ], [ -123.617, 48.947 ], [ -123.29, 49.187 ], [ -123.111, 49.134 ], [ -122.837, 49.303 ], [ -122.534, 49.247 ], [ -121.576, 49.18 ], [ -120.445, 49.201 ], [ -120.15, 49.202720743711268 ], [ -120.15, 47.65 ] ] ] } },
{ "type": "Feature", "properties": { "region": 4, "names": "PacificSW", "group": "WEST" }, "geometry": { "type": "Polygon", "coordinates": [ [ [ -116.65, 35.85 ], [ -116.160323712948525, 32.422265990639623 ], [ -116.707, 32.394 ], [ -117.217, 32.397 ], [ -117.646, 32.472 ], [ -117.738, 32.531 ], [ -117.746, 32.694 ], [ -117.791, 32.911 ], [ -118.158, 33.192 ], [ -118.623, 32.995 ], [ -118.868, 33.315 ], [ -119.105, 33.582 ], [ -119.318, 33.768 ], [ -119.535, 33.987 ], [ -120.066, 33.904 ], [ -121.275, 33.679 ], [ -121.584, 33.954 ], [ -121.826, 34.367 ], [ -121.88, 34.66 ], [ -122.059, 34.867 ], [ -120.888, 34.912 ], [ -120.893, 35.025 ], [ -121.043, 35.12 ], [ -121.102, 35.203 ], [ -121.101, 35.33 ], [ -121.467, 35.579 ], [ -121.847, 36.021 ], [ -122.08, 36.25 ], [ -122.212, 36.601 ], [ -122.153, 36.777 ], [ -122.383, 36.915 ], [ -122.618, 37.111 ], [ -122.627, 37.298 ], [ -122.761, 37.545 ], [ -122.74, 37.709 ], [ -122.921, 37.832 ], [ -123.141, 37.843 ], [ -123.226, 37.954 ], [ -123.188, 38.138 ], [ -123.334, 38.347 ], [ -123.675, 38.615 ], [ -123.726715736040603, 38.672563451776647 ], [ -123.65, 38.65 ], [ -122.65, 40.15 ], [ -121.65, 40.15 ], [ -121.65, 40.85 ], [ -116.65, 35.85 ] ] ] } },
{ "type": "Feature", "properties": { "region": 5, "names": "Southwest", "group": "WEST" }, "geometry": { "type": "Polygon", "coordinates": [ [ [ -111.65, 36.85 ], [ -110.15, 34.85 ], [ -108.15, 33.85 ], [ -108.15, 31.17964 ], [ -109.094, 31.123 ], [ -110.773, 31.148 ], [ -111.169, 31.194 ], [ -114.586, 32.219 ], [ -115.006, 32.395 ], [ -115.016, 32.542 ], [ -115.798, 32.441 ], [ -116.160323712948525, 32.422265990639623 ], [ -116.65, 35.85 ], [ -117.65, 36.85 ], [ -111.65, 36.85 ] ] ] } },
{ "type": "Feature", "properties": { "region": 6, "names": "Mezquital", "group": "WEST" }, "geometry": { "type": "Polygon", "coordinates": [ [ [ -105.85, 33.35 ], [ -104.85, 35.35 ], [ -103.65, 35.35 ], [ -101.65, 30.35 ], [ -98.65, 29.35 ], [ -98.15, 27.35 ], [ -97.15, 27.35 ], [ -97.016294680851061, 27.082589361702119 ], [ -97.017, 27.081 ], [ -96.876, 26.595 ], [ -96.749, 25.948 ], [ -97.075, 25.799 ], [ -97.23, 25.659 ], [ -97.68, 25.837 ], [ -98.218, 25.934 ], [ -99.103, 26.254 ], [ -99.357, 26.519 ], [ -99.612, 27.039 ], [ -99.697, 27.291 ], [ -99.724, 27.496 ], [ -99.917, 27.637 ], [ -100.23, 28.008 ], [ -100.41, 28.265 ], [ -100.754, 28.844 ], [ -100.911, 29.059 ], [ -101.45, 29.518 ], [ -101.616, 29.594 ], [ -102.125, 29.651 ], [ -102.3, 29.645 ], [ -102.486, 29.578 ], [ -102.613, 29.283 ], [ -102.733, 29.098 ], [ -102.962, 28.86 ], [ -103.419, 28.868 ], [ -104.191, 29.275 ], [ -104.636, 29.554 ], [ -104.879, 29.863 ], [ -104.926, 30.211 ], [ -105.115, 30.476 ], [ -105.605, 30.822 ], [ -106.064, 31.194 ], [ -106.509, 31.409 ], [ -106.568, 31.573 ], [ -108.002, 31.623 ], [ -108.044, 31.186 ], [ -108.15, 31.17964 ], [ -108.15, 33.35 ], [ -105.85, 33.35 ] ] ] } },
{ "type": "Feature", "properties": { "region": 9, "names": "GreatBasin", "group": "WEST" }, "geometry": { "type": "Polygon", "coordinates": [ [ [ -116.65, 44.85 ], [ -115.65, 43.35 ], [ -114.15, 43.35 ], [ -112.15, 41.85 ], [ -112.15, 39.15 ], [ -113.3, 36.85 ], [ -117.65, 36.85 ], [ -121.65, 40.85 ], [ -121.65, 45.15 ], [ -120.15, 47.65 ], [ -120.15, 49.202720743711268 ], [ -117.702, 49.217 ], [ -116.65, 49.219238774207277 ], [ -116.65, 44.85 ] ] ] } },
{ "type": "Feature", "properties": { "region": 7, "names": "NRockies", "group": "WEST" }, "geometry": { "type": "Polygon", "coordinates": [ [ [ -111.65, 47.85 ], [ -110.15, 47.85 ], [ -106.65, 44.35 ], [ -106.65, 43.15 ], [ -110.65, 41.15 ], [ -112.15, 41.15 ], [ -112.15, 41.85 ], [ -114.15, 43.35 ], [ -115.65, 43.35 ], [ -116.65, 44.85 ], [ -116.65, 49.219238774207277 ], [ -113.003, 49.227 ], [ -112.335233038348093, 49.220466076696162 ], [ -111.65, 47.85 ] ] ] } },
{ "type": "Feature", "properties": { "region": 8, "names": "SRockies", "group": "WEST" }, "geometry": { "type": "Polygon", "coordinates": [ [ [ -105.65, 42.35 ], [ -104.65, 42.35 ], [ -104.15, 38.35 ], [ -103.15, 37.85 ], [ -103.15, 35.15 ], [ -103.473076923076931, 34.907692307692308 ], [ -103.65, 35.35 ], [ -104.85, 35.35 ], [ -105.85, 33.35 ], [ -108.15, 33.35 ], [ -108.15, 33.85 ], [ -110.15, 34.85 ], [ -111.65, 36.85 ], [ -113.3, 36.85 ], [ -112.15, 39.15 ], [ -112.15, 41.15 ], [ -110.65, 41.15 ], [ -106.65, 43.15 ], [ -106.65, 43.85 ], [ -105.65, 42.35 ] ] ] } },
{ "type": "Feature", "properties": { "region": 11, "names": "CPlains", "group": "CENTRAL" }, "geometry": { "type": "Polygon", "coordinates": [ [ [ -97.65, 41.85 ], [ -96.65, 39.85 ], [ -96.65, 37.15 ], [ -97.65, 37.15 ], [ -101.65, 32.15 ], [ -102.37, 32.15 ], [ -103.473076923076931, 34.907692307692308 ], [ -103.15, 35.15 ], [ -103.15, 37.85 ], [ -104.15, 38.35 ], [ -104.5875, 41.85 ], [ -97.65, 41.85 ] ] ] } },
{ "type": "Feature", "properties": { "region": 12, "names": "SPlains", "group": "CENTRAL" }, "geometry": { "type": "GeometryCollection", "geometries": [ { "type": "Polygon", "coordinates": [ [ [ -95.15, 37.35 ], [ -94.65, 31.15 ], [ -95.65, 30.15 ], [ -95.65, 28.361681318681317 ], [ -96.044, 28.182 ], [ -96.147, 28.055 ], [ -96.427, 27.94 ], [ -96.796, 27.579 ], [ -97.016294680851061, 27.082589361702123 ], [ -97.15, 27.35 ], [ -98.15, 27.35 ], [ -98.65, 29.35 ], [ -101.65, 30.35 ], [ -102.37, 32.15 ], [ -101.65, 32.15 ], [ -97.65, 37.15 ], [ -96.65, 37.15 ], [ -96.65, 37.584375 ], [ -95.15, 37.35 ] ] ] }, { "type": "LineString", "coordinates": [ [ -102.37, 32.15 ], [ -102.696153846153848, 32.965384615384608 ] ] } ] } },
{ "type": "Feature", "properties": { "region": 13, "names": "Prairie", "group": "CENTRAL" }, "geometry": { "type": "Polygon", "coordinates": [ [ [ -97.85, 45.85 ], [ -96.85, 46.35 ], [ -95.85, 48.85 ], [ -94.413744116015522, 49.020982843331488 ], [ -94.395, 48.962 ], [ -93.805, 48.857 ], [ -93.513, 48.786 ], [ -93.223, 48.834 ], [ -92.5, 48.697 ], [ -91.94, 48.521 ], [ -91.797550489699432, 48.464697061803449 ], [ -92.15, 46.35 ], [ -90.15, 46.35 ], [ -89.15, 45.35 ], [ -88.65, 41.85 ], [ -86.15, 40.85 ], [ -86.15, 38.65 ], [ -88.15, 36.65 ], [ -89.85, 36.65 ], [ -91.85, 38.15 ], [ -94.15, 37.65 ], [ -94.65, 36.65 ], [ -95.093548387096774, 36.65 ], [ -95.15, 37.35 ], [ -96.65, 37.584375 ], [ -96.65, 39.85 ], [ -97.65, 41.85 ], [ -98.200877192982446, 41.85 ], [ -97.85, 45.85 ] ] ] } },
{ "type": "Feature", "properties": { "region": 10, "names": "NPlains", "group": "CENTRAL" }, "geometry": { "type": "Polygon", "coordinates": [ [ [ -94.65, 49.35 ], [ -94.518302245250425, 49.35 ], [ -94.413744116015522, 49.020982843331488 ], [ -95.85, 48.85 ], [ -96.85, 46.35 ], [ -97.85, 45.85 ], [ -98.200877192982446, 41.85 ], [ -104.5875, 41.85 ], [ -104.65, 42.35 ], [ -105.65, 42.35 ], [ -106.65, 43.85 ], [ -106.65, 44.35 ], [ -110.15, 47.85 ], [ -111.65, 47.85 ], [ -112.335233038348093, 49.220466076696162 ], [ -113.003, 49.227 ], [ -109.426, 49.192 ], [ -107.292, 49.194 ], [ -105.669, 49.171 ], [ -101.067, 49.197 ], [ -98.264, 49.18 ], [ -96.747, 49.197 ], [ -95.453, 49.167 ], [ -95.49, 49.561 ], [ -95.010866057142863, 49.550481142857144 ], [ -94.65, 49.35 ] ] ] } },
{ "type": "Feature", "properties": { "region": 14, "names": "GreatLakes", "group": "EAST" }, "geometry": { "type": "Polygon", "coordinates": [ [ [ -72.15, 45.15 ], [ -75.15, 44.65 ], [ -76.15, 42.65 ], [ -80.15, 42.15 ], [ -80.15, 41.15 ], [ -81.65, 41.15 ], [ -82.65, 40.15 ], [ -86.15, 40.15 ], [ -86.15, 40.85 ], [ -88.65, 41.85 ], [ -89.15, 45.35 ], [ -90.15, 46.35 ], [ -92.15, 46.35 ], [ -91.797550489699432, 48.464697061803449 ], [ -91.477, 48.338 ], [ -90.777, 48.453 ], [ -90.513, 48.262 ], [ -90.011, 48.266 ], [ -89.521, 48.207 ], [ -88.425, 48.56 ], [ -88.011096228404213, 48.395977167092532 ], [ -85.677, 47.453 ], [ -84.653, 46.989 ], [ -84.444, 46.699 ], [ -84.034, 46.687 ], [ -83.88, 46.326 ], [ -83.814, 46.264 ], [ -83.601, 46.229 ], [ -83.414, 46.232 ], [ -83.251, 46.093 ], [ -83.292, 45.799 ], [ -82.232, 45.499 ], [ -81.965, 44.144 ], [ -81.902, 43.586 ], [ -82.087, 43.18 ], [ -82.073, 43.025 ], [ -82.196, 42.879 ], [ -82.304, 42.546 ], [ -82.518, 42.326 ], [ -82.69, 42.224 ], [ -82.863, 42.181 ], [ -82.903, 42.063 ], [ -82.863, 41.98 ], [ -82.808, 41.911 ], [ -82.689, 41.863 ], [ -82.459, 41.878 ], [ -81.764, 42.178 ], [ -81.262, 42.421 ], [ -80.316, 42.6 ], [ -79.514, 42.795 ], [ -79.252, 42.966 ], [ -79.373, 43.553 ], [ -78.632, 43.794 ], [ -76.955, 43.791 ], [ -76.557, 44.256 ], [ -75.977, 44.604 ], [ -75.603, 44.874 ], [ -74.881, 45.189 ], [ -72.15, 45.173497634815519 ], [ -72.15, 45.15 ] ] ] } },
{ "type": "Feature", "properties": { "region": 15, "names": "Appalachia", "group": "EAST" }, "geometry": { "type": "Polygon", "coordinates": [ [ [ -88.85, 36.65 ], [ -88.15, 36.65 ], [ -86.15, 38.65 ], [ -86.15, 40.15 ], [ -82.65, 40.15 ], [ -81.65, 41.15 ], [ -80.15, 41.15 ], [ -80.15, 42.15 ], [ -77.75, 42.45 ], [ -77.15, 41.85 ], [ -78.65, 38.15 ], [ -83.15, 33.65 ], [ -85.35, 33.65 ], [ -85.35, 34.65 ], [ -87.35, 36.15 ], [ -88.85, 36.65 ] ] ] } },
{ "type": "Feature", "properties": { "region": 16, "names": "DeepSouth", "group": "SOUTH" }, "geometry": { "type": "Polygon", "coordinates": [ [ [ -83.65, 31.65 ], [ -94.652404176397866, 31.179811787333424 ], [ -95.15, 37.35 ], [ -95.093548387096774, 36.65 ], [ -94.65, 36.65 ], [ -94.15, 37.65 ], [ -91.85, 38.15 ], [ -89.85, 36.65 ], [ -88.85, 36.65 ], [ -87.35, 36.15 ], [ -85.35, 34.65 ], [ -85.35, 33.65 ], [ -83.65, 33.65 ], [ -83.65, 31.65 ] ] ] } },
{ "type": "Feature", "properties": { "region": 19, "names": "MidAtlantic", "group": "EAST" }, "geometry": { "type": "Polygon", "coordinates": [ [ [ -73.65, 40.85 ], [ -73.65, 40.227592233009666 ], [ -73.751, 39.803 ], [ -73.839, 39.533 ], [ -74.085, 39.198 ], [ -74.372, 38.982 ], [ -74.504, 38.814 ], [ -74.716, 38.67 ], [ -74.701, 38.442 ], [ -74.762, 38.239 ], [ -75.086, 37.666 ], [ -75.263, 37.548 ], [ -75.356, 37.334 ], [ -75.645, 36.894 ], [ -75.582211084337345, 36.734736144578321 ], [ -75.65, 36.65 ], [ -75.65, 34.878592841163311 ], [ -75.726, 34.857 ], [ -76.265, 34.375 ], [ -76.54, 34.248 ], [ -76.776, 34.354 ], [ -76.936, 34.358 ], [ -77.521, 34.032 ], [ -77.684, 33.615 ], [ -77.95, 33.516 ], [ -78.163, 33.577 ], [ -78.514212168486736, 33.495684867394694 ], [ -80.15, 34.15 ], [ -81.65, 32.15 ], [ -83.65, 32.15 ], [ -83.65, 33.65 ], [ -83.15, 33.65 ], [ -78.65, 38.15 ], [ -77.408879439719868, 41.211430715357679 ], [ -73.65, 40.85 ] ] ] } },
{ "type": "Feature", "properties": { "region": 17, "names": "Southeast", "group": "SOUTH" }, "geometry": { "type": "Polygon", "coordinates": [ [ [ -81.15, 30.65 ], [ -81.041821473551636, 30.448066750629717 ], [ -80.989, 30.128 ], [ -80.765, 29.498 ], [ -80.349, 28.83 ], [ -80.197, 28.552 ], [ -80.271, 28.232 ], [ -79.788, 27.148 ], [ -79.75176004323545, 26.995215636822213 ], [ -79.971845009195789, 25.146501922755387 ], [ -80.143, 24.859 ], [ -80.331, 24.705 ], [ -80.635, 24.487 ], [ -81.054, 24.361 ], [ -81.782, 24.208 ], [ -82.35, 24.186576402321084 ], [ -82.35, 25.016782352941178 ], [ -82.313, 25.017 ], [ -82.35, 25.095709090909086 ], [ -82.35, 25.15 ], [ -82.410771084337341, 25.180385542168676 ], [ -82.51, 25.288 ], [ -82.632, 25.453 ], [ -81.934, 25.61 ], [ -82.143, 26.09 ], [ -82.324, 26.171 ], [ -82.535, 26.48 ], [ -82.719, 26.892 ], [ -83.105, 27.532 ], [ -83.07, 27.615 ], [ -83.183, 27.781 ], [ -83.185, 28.105 ], [ -83.156, 28.373 ], [ -83.014, 28.465 ], [ -82.99, 28.551 ], [ -83.026, 28.753 ], [ -83.273, 28.827 ], [ -83.421, 29.093 ], [ -83.625, 29.29 ], [ -83.895, 29.642 ], [ -84.073, 29.73 ], [ -84.171, 29.626 ], [ -84.467, 29.438 ], [ -85.018, 29.246 ], [ -85.675, 29.436 ], [ -85.767, 29.696 ], [ -85.985, 29.876 ], [ -86.462, 30.068 ], [ -87.771, 29.878 ], [ -88.406, 29.863 ], [ -88.432, 29.714 ], [ -88.4846, 29.65 ], [ -88.65, 29.65 ], [ -88.65, 29.44875285171101 ], [ -88.695, 29.394 ], [ -88.65, 29.336763157894747 ], [ -88.65, 28.989732704402506 ], [ -88.937, 28.691 ], [ -89.399, 28.577 ], [ -89.712, 28.693 ], [ -89.828, 28.916 ], [ -90.102, 28.755 ], [ -90.54, 28.711 ], [ -91.083, 28.732 ], [ -91.315, 28.893 ], [ -91.556, 28.983 ], [ -91.655, 29.121 ], [ -91.742, 29.058 ], [ -92.079, 29.114 ], [ -92.164, 29.181 ], [ -92.629, 29.233 ], [ -93.243, 29.441 ], [ -93.588, 29.43 ], [ -93.777, 29.35 ], [ -93.961, 29.348 ], [ -94.266, 29.222 ], [ -94.9, 28.808 ], [ -95.134, 28.597 ], [ -96.038201769911495, 28.18464424778761 ], [ -95.65, 28.361681318681317 ], [ -95.65, 30.15 ], [ -94.65, 31.15 ], [ -94.652404176397866, 31.179811787333424 ], [ -83.65, 31.65 ], [ -83.65, 32.15 ], [ -81.65, 32.15 ], [ -80.15, 34.15 ], [ -78.514212168486736, 33.495684867394694 ], [ -78.569, 33.483 ], [ -78.808, 33.309 ], [ -78.931, 32.928 ], [ -80.061, 32.203 ], [ -80.21, 32.07 ], [ -80.436, 31.966 ], [ -80.764, 31.633 ], [ -81.09, 30.74 ], [ -81.084196791955947, 30.704836006703374 ], [ -81.15, 30.65 ] ] ] } },
{ "type": "Feature", "properties": { "region": 20, "names": "NorthAtlantic", "group": "EAST" }, "geometry": { "type": "Polygon", "coordinates": [ [ [ -70.15, 43.15 ], [ -69.719525379037577, 40.997626895187871 ], [ -69.946, 40.916 ], [ -70.34, 40.942 ], [ -70.838, 40.931 ], [ -71.244, 40.859 ], [ -71.608, 40.77 ], [ -72.567, 40.462 ], [ -72.656882728028833, 40.425605766565013 ], [ -73.65, 40.351492537313433 ], [ -73.65, 40.85 ], [ -77.408879439719868, 41.211430715357679 ], [ -77.15, 41.85 ], [ -77.75, 42.45 ], [ -76.15, 42.65 ], [ -75.15, 44.65 ], [ -72.15, 45.15 ], [ -72.15, 45.173497634815519 ], [ -71.71, 45.171 ], [ -71.571, 45.456 ], [ -70.993, 45.547 ], [ -70.611, 45.956 ], [ -70.553, 46.207 ], [ -70.214, 46.804 ], [ -69.338, 47.646 ], [ -68.819, 47.584 ], [ -68.687, 47.517 ], [ -68.509, 47.491 ], [ -68.217, 47.605 ], [ -67.636, 47.183 ], [ -67.471, 46.578 ], [ -67.502, 45.792 ], [ -67.236, 45.629 ], [ -67.178, 45.432 ], [ -66.953, 45.389 ], [ -66.838, 45.131 ], [ -66.773, 45.027 ], [ -66.76, 44.945 ], [ -66.669, 44.792 ], [ -67.204, 44.381 ], [ -67.279, 44.152 ], [ -68.184, 43.802 ], [ -68.352, 43.817 ], [ -68.538, 43.761 ], [ -68.902, 43.581 ], [ -69.388, 43.422 ], [ -69.557, 43.333 ], [ -69.738, 43.3 ], [ -69.869692307692318, 43.200054945054944 ], [ -70.15, 43.15 ] ] ] } },
{ "type": "Feature", "properties": { "region": 22, "names": "CENTRAL", "group": null }, "geometry": { "type": "Polygon", "coordinates": [ [ [ -95.65, 28.361681318681317 ], [ -96.044, 28.182 ], [ -96.147, 28.055 ], [ -96.427, 27.94 ], [ -96.796, 27.579 ], [ -97.016294680851061, 27.082589361702123 ], [ -97.15, 27.35 ], [ -98.15, 27.35 ], [ -98.65, 29.35 ], [ -101.65, 30.35 ], [ -102.37, 32.15 ], [ -103.473076923076931, 34.907692307692308 ], [ -103.15, 35.15 ], [ -103.15, 37.85 ], [ -104.15, 38.35 ], [ -104.5875, 41.85 ], [ -104.65, 42.35 ], [ -105.65, 42.35 ], [ -106.65, 43.85 ], [ -106.65, 44.35 ], [ -110.15, 47.85 ], [ -111.65, 47.85 ], [ -112.335233038348093, 49.220466076696162 ], [ -113.003, 49.227 ], [ -109.426, 49.192 ], [ -107.292, 49.194 ], [ -105.669, 49.171 ], [ -101.067, 49.197 ], [ -98.264, 49.18 ], [ -96.747, 49.197 ], [ -95.453, 49.167 ], [ -95.49, 49.561 ], [ -95.010866057142863, 49.550481142857144 ], [ -94.65, 49.35 ], [ -94.518302245250425, 49.35 ], [ -94.413744116015522, 49.020982843331488 ], [ -94.395, 48.962 ], [ -93.805, 48.857 ], [ -93.513, 48.786 ], [ -93.223, 48.834 ], [ -92.5, 48.697 ], [ -91.94, 48.521 ], [ -91.797550489699432, 48.464697061803449 ], [ -92.15, 46.35 ], [ -90.15, 46.35 ], [ -89.15, 45.35 ], [ -88.65, 41.85 ], [ -86.15, 40.85 ], [ -86.15, 38.65 ], [ -88.15, 36.65 ], [ -89.85, 36.65 ], [ -91.85, 38.15 ], [ -94.15, 37.65 ], [ -94.65, 36.65 ], [ -95.093548387096774, 36.65 ], [ -95.15, 37.35 ], [ -94.65, 31.15 ], [ -95.65, 30.15 ], [ -95.65, 28.361681318681317 ] ] ] } },
{ "type": "Feature", "properties": { "region": 24, "names": "EAST", "group": null }, "geometry": { "type": "Polygon", "coordinates": [ [ [ -73.751, 39.803 ], [ -73.839, 39.533 ], [ -74.085, 39.198 ], [ -74.372, 38.982 ], [ -74.504, 38.814 ], [ -74.716, 38.67 ], [ -74.701, 38.442 ], [ -74.762, 38.239 ], [ -75.086, 37.666 ], [ -75.263, 37.548 ], [ -75.356, 37.334 ], [ -75.645, 36.894 ], [ -75.582211084337345, 36.734736144578321 ], [ -75.65, 36.65 ], [ -75.65, 34.878592841163311 ], [ -75.726, 34.857 ], [ -76.265, 34.375 ], [ -76.54, 34.248 ], [ -76.776, 34.354 ], [ -76.936, 34.358 ], [ -77.521, 34.032 ], [ -77.684, 33.615 ], [ -77.95, 33.516 ], [ -78.163, 33.577 ], [ -78.514212168486736, 33.495684867394694 ], [ -80.15, 34.15 ], [ -81.65, 32.15 ], [ -83.65, 32.15 ], [ -83.65, 33.65 ], [ -85.35, 33.65 ], [ -85.35, 34.65 ], [ -87.35, 36.15 ], [ -88.85, 36.65 ], [ -88.15, 36.65 ], [ -86.15, 38.65 ], [ -86.15, 40.15 ], [ -86.15, 40.85 ], [ -88.65, 41.85 ], [ -89.15, 45.35 ], [ -90.15, 46.35 ], [ -92.15, 46.35 ], [ -91.797550489699432, 48.464697061803449 ], [ -91.477, 48.338 ], [ -90.777, 48.453 ], [ -90.513, 48.262 ], [ -90.011, 48.266 ], [ -89.521, 48.207 ], [ -88.425, 48.56 ], [ -88.011096228404213, 48.395977167092532 ], [ -85.677, 47.453 ], [ -84.653, 46.989 ], [ -84.444, 46.699 ], [ -84.034, 46.687 ], [ -83.88, 46.326 ], [ -83.814, 46.264 ], [ -83.601, 46.229 ], [ -83.414, 46.232 ], [ -83.251, 46.093 ], [ -83.292, 45.799 ], [ -82.232, 45.499 ], [ -81.965, 44.144 ], [ -81.902, 43.586 ], [ -82.087, 43.18 ], [ -82.073, 43.025 ], [ -82.196, 42.879 ], [ -82.304, 42.546 ], [ -82.518, 42.326 ], [ -82.69, 42.224 ], [ -82.863, 42.181 ], [ -82.903, 42.063 ], [ -82.863, 41.98 ], [ -82.808, 41.911 ], [ -82.689, 41.863 ], [ -82.459, 41.878 ], [ -81.764, 42.178 ], [ -81.262, 42.421 ], [ -80.316, 42.6 ], [ -79.514, 42.795 ], [ -79.252, 42.966 ], [ -79.373, 43.553 ], [ -78.632, 43.794 ], [ -76.955, 43.791 ], [ -76.557, 44.256 ], [ -75.977, 44.604 ], [ -75.603, 44.874 ], [ -74.881, 45.189 ], [ -72.15, 45.173497634815519 ], [ -71.71, 45.171 ], [ -71.571, 45.456 ], [ -70.993, 45.547 ], [ -70.611, 45.956 ], [ -70.553, 46.207 ], [ -70.214, 46.804 ], [ -69.338, 47.646 ], [ -68.819, 47.584 ], [ -68.687, 47.517 ], [ -68.509, 47.491 ], [ -68.217, 47.605 ], [ -67.636, 47.183 ], [ -67.471, 46.578 ], [ -67.502, 45.792 ], [ -67.236, 45.629 ], [ -67.178, 45.432 ], [ -66.953, 45.389 ], [ -66.838, 45.131 ], [ -66.773, 45.027 ], [ -66.76, 44.945 ], [ -66.669, 44.792 ], [ -67.204, 44.381 ], [ -67.279, 44.152 ], [ -68.184, 43.802 ], [ -68.352, 43.817 ], [ -68.538, 43.761 ], [ -68.902, 43.581 ], [ -69.388, 43.422 ], [ -69.557, 43.333 ], [ -69.738, 43.3 ], [ -69.869692307692318, 43.200054945054944 ], [ -70.15, 43.15 ], [ -69.719525379037577, 40.997626895187871 ], [ -69.946, 40.916 ], [ -70.34, 40.942 ], [ -70.838, 40.931 ], [ -71.244, 40.859 ], [ -71.608, 40.77 ], [ -72.567, 40.462 ], [ -72.656882728028833, 40.425605766565013 ], [ -73.65, 40.351492537313433 ], [ -73.65, 40.227592233009666 ], [ -73.751, 39.803 ] ] ] } },
{ "type": "Feature", "properties": { "region": 23, "names": "SOUTH", "group": null }, "geometry": { "type": "Polygon", "coordinates": [ [ [ -81.041821473551636, 30.448066750629717 ], [ -80.989, 30.128 ], [ -80.765, 29.498 ], [ -80.349, 28.83 ], [ -80.197, 28.552 ], [ -80.271, 28.232 ], [ -79.788, 27.148 ], [ -79.75176004323545, 26.995215636822213 ], [ -79.971845009195789, 25.146501922755387 ], [ -80.143, 24.859 ], [ -80.331, 24.705 ], [ -80.635, 24.487 ], [ -81.054, 24.361 ], [ -81.782, 24.208 ], [ -82.35, 24.186576402321084 ], [ -82.35, 25.016782352941178 ], [ -82.313, 25.017 ], [ -82.35, 25.095709090909086 ], [ -82.35, 25.15 ], [ -82.410771084337341, 25.180385542168676 ], [ -82.51, 25.288 ], [ -82.632, 25.453 ], [ -81.934, 25.61 ], [ -82.143, 26.09 ], [ -82.324, 26.171 ], [ -82.535, 26.48 ], [ -82.719, 26.892 ], [ -83.105, 27.532 ], [ -83.07, 27.615 ], [ -83.183, 27.781 ], [ -83.185, 28.105 ], [ -83.156, 28.373 ], [ -83.014, 28.465 ], [ -82.99, 28.551 ], [ -83.026, 28.753 ], [ -83.273, 28.827 ], [ -83.421, 29.093 ], [ -83.625, 29.29 ], [ -83.895, 29.642 ], [ -84.073, 29.73 ], [ -84.171, 29.626 ], [ -84.467, 29.438 ], [ -85.018, 29.246 ], [ -85.675, 29.436 ], [ -85.767, 29.696 ], [ -85.985, 29.876 ], [ -86.462, 30.068 ], [ -87.771, 29.878 ], [ -88.406, 29.863 ], [ -88.432, 29.714 ], [ -88.4846, 29.65 ], [ -88.65, 29.65 ], [ -88.65, 29.44875285171101 ], [ -88.695, 29.394 ], [ -88.65, 29.336763157894747 ], [ -88.65, 28.989732704402506 ], [ -88.937, 28.691 ], [ -89.399, 28.577 ], [ -89.712, 28.693 ], [ -89.828, 28.916 ], [ -90.102, 28.755 ], [ -90.54, 28.711 ], [ -91.083, 28.732 ], [ -91.315, 28.893 ], [ -91.556, 28.983 ], [ -91.655, 29.121 ], [ -91.742, 29.058 ], [ -92.079, 29.114 ], [ -92.164, 29.181 ], [ -92.629, 29.233 ], [ -93.243, 29.441 ], [ -93.588, 29.43 ], [ -93.777, 29.35 ], [ -93.961, 29.348 ], [ -94.266, 29.222 ], [ -94.9, 28.808 ], [ -95.134, 28.597 ], [ -96.038201769911495, 28.18464424778761 ], [ -95.65, 28.361681318681317 ], [ -95.65, 30.15 ], [ -94.65, 31.15 ], [ -94.652404176397866, 31.179811787333424 ], [ -95.15, 37.35 ], [ -95.093548387096774, 36.65 ], [ -94.65, 36.65 ], [ -94.15, 37.65 ], [ -91.85, 38.15 ], [ -89.85, 36.65 ], [ -88.85, 36.65 ], [ -87.35, 36.15 ], [ -85.35, 34.65 ], [ -85.35, 33.65 ], [ -83.65, 33.65 ], [ -83.65, 32.15 ], [ -81.65, 32.15 ], [ -80.15, 34.15 ], [ -78.514212168486736, 33.495684867394694 ], [ -78.569, 33.483 ], [ -78.808, 33.309 ], [ -78.931, 32.928 ], [ -80.061, 32.203 ], [ -80.21, 32.07 ], [ -80.436, 31.966 ], [ -80.764, 31.633 ], [ -81.09, 30.74 ], [ -81.084196791955947, 30.704836006703374 ], [ -81.15, 30.65 ], [ -81.041821473551636, 30.448066750629717 ] ] ] } },
{ "type": "Feature", "properties": { "region": 21, "names": "WEST", "group": null }, "geometry": { "type": "Polygon", "coordinates": [ [ [ -101.65, 30.35 ], [ -98.65, 29.35 ], [ -98.15, 27.35 ], [ -97.15, 27.35 ], [ -97.016294680851061, 27.082589361702119 ], [ -97.017, 27.081 ], [ -96.876, 26.595 ], [ -96.749, 25.948 ], [ -97.075, 25.799 ], [ -97.23, 25.659 ], [ -97.68, 25.837 ], [ -98.218, 25.934 ], [ -99.103, 26.254 ], [ -99.357, 26.519 ], [ -99.612, 27.039 ], [ -99.697, 27.291 ], [ -99.724, 27.496 ], [ -99.917, 27.637 ], [ -100.23, 28.008 ], [ -100.41, 28.265 ], [ -100.754, 28.844 ], [ -100.911, 29.059 ], [ -101.45, 29.518 ], [ -101.616, 29.594 ], [ -102.125, 29.651 ], [ -102.3, 29.645 ], [ -102.486, 29.578 ], [ -102.613, 29.283 ], [ -102.733, 29.098 ], [ -102.962, 28.86 ], [ -103.419, 28.868 ], [ -104.191, 29.275 ], [ -104.636, 29.554 ], [ -104.879, 29.863 ], [ -104.926, 30.211 ], [ -105.115, 30.476 ], [ -105.605, 30.822 ], [ -106.064, 31.194 ], [ -106.509, 31.409 ], [ -106.568, 31.573 ], [ -108.002, 31.623 ], [ -108.044, 31.186 ], [ -108.15, 31.17964 ], [ -109.094, 31.123 ], [ -110.773, 31.148 ], [ -111.169, 31.194 ], [ -114.586, 32.219 ], [ -115.006, 32.395 ], [ -115.016, 32.542 ], [ -115.798, 32.441 ], [ -116.160323712948525, 32.422265990639623 ], [ -116.707, 32.394 ], [ -117.217, 32.397 ], [ -117.646, 32.472 ], [ -117.738, 32.531 ], [ -117.746, 32.694 ], [ -117.791, 32.911 ], [ -118.158, 33.192 ], [ -118.623, 32.995 ], [ -118.868, 33.315 ], [ -119.105, 33.582 ], [ -119.318, 33.768 ], [ -119.535, 33.987 ], [ -120.066, 33.904 ], [ -121.275, 33.679 ], [ -121.584, 33.954 ], [ -121.826, 34.367 ], [ -121.88, 34.66 ], [ -122.059, 34.867 ], [ -120.888, 34.912 ], [ -120.893, 35.025 ], [ -121.043, 35.12 ], [ -121.102, 35.203 ], [ -121.101, 35.33 ], [ -121.467, 35.579 ], [ -121.847, 36.021 ], [ -122.08, 36.25 ], [ -122.212, 36.601 ], [ -122.153, 36.777 ], [ -122.383, 36.915 ], [ -122.618, 37.111 ], [ -122.627, 37.298 ], [ -122.761, 37.545 ], [ -122.74, 37.709 ], [ -122.921, 37.832 ], [ -123.141, 37.843 ], [ -123.226, 37.954 ], [ -123.188, 38.138 ], [ -123.334, 38.347 ], [ -123.675, 38.615 ], [ -123.726715736040603, 38.672563451776647 ], [ -123.958, 38.93 ], [ -123.915, 39.033 ], [ -124.063, 39.354 ], [ -124.015, 39.57 ], [ -124.094, 39.785 ], [ -124.589, 40.208 ], [ -124.605, 40.326 ], [ -124.647, 40.459 ], [ -124.611, 40.573 ], [ -124.351, 40.962 ], [ -124.381, 41.175 ], [ -124.28, 41.465 ], [ -124.451, 41.687 ], [ -124.456, 41.912 ], [ -124.658, 42.199 ], [ -124.66, 42.565 ], [ -124.838, 42.813 ], [ -124.601, 43.21 ], [ -124.66, 43.34 ], [ -124.483, 43.509 ], [ -124.37, 44.139 ], [ -124.312, 44.852 ], [ -124.195, 45.216 ], [ -124.249, 45.364 ], [ -124.209, 45.637 ], [ -124.251, 45.919 ], [ -124.172, 46.089 ], [ -124.36, 46.217 ], [ -124.325, 46.697 ], [ -124.45, 46.914 ], [ -124.416, 47.095 ], [ -124.59, 47.322 ], [ -124.653, 47.654 ], [ -124.891, 47.833 ], [ -125.021, 48.196 ], [ -125.022, 48.603 ], [ -124.41, 48.528 ], [ -123.817, 48.375 ], [ -123.588, 48.395 ], [ -123.444, 48.452 ], [ -123.444, 48.604 ], [ -123.553, 48.73 ], [ -123.617, 48.947 ], [ -123.29, 49.187 ], [ -123.111, 49.134 ], [ -122.837, 49.303 ], [ -122.534, 49.247 ], [ -121.576, 49.18 ], [ -120.445, 49.201 ], [ -120.15, 49.202720743711268 ], [ -117.702, 49.217 ], [ -116.65, 49.219238774207277 ], [ -113.003, 49.227 ], [ -112.335233038348093, 49.220466076696162 ], [ -111.65, 47.85 ], [ -110.15, 47.85 ], [ -106.65, 44.35 ], [ -106.65, 43.85 ], [ -105.65, 42.35 ], [ -104.65, 42.35 ], [ -104.15, 38.35 ], [ -103.15, 37.85 ], [ -103.15, 35.15 ], [ -103.473076923076931, 34.907692307692308 ], [ -101.65, 30.35 ] ] ] } }
]
}
